{
  "type": "FeatureCollection",
  "features": [
    {
      "type": "Feature",
      "properties": {
        "norad_id": 31692,
        "name": "FENGYUN 1C DEB",
        "group": "fengyun-1c-debris",
        "lat": -18.692901609964842,
        "lon": 164.79596345740313,
        "alt_km": 876.0916303356662,
        "timestamp": "2025-12-17T07:00:47.188285+00:00",
        "meta_object_name": "FENGYUN 1C DEB",
        "meta_object_id": "1999-025CDA",
        "meta_epoch": "2025-12-13T19:07:47.653248",
        "meta_mean_motion": 14.1836456,
        "meta_eccentricity": 0.00879373,
        "meta_inclination": 99.1765,
        "meta_ra_of_asc_node": 344.318,
        "meta_arg_of_pericenter": 78.7556,
        "meta_mean_anomaly": 282.3486,
        "meta_ephemeris_type": 0,
        "meta_classification_type": "U",
        "meta_norad_cat_id": 31692,
        "meta_element_set_no": 999,
        "meta_rev_at_epoch": 58224,
        "meta_bstar": 0.0032581742,
        "meta_mean_motion_dot": 6.94e-05,
        "meta_mean_motion_ddot": 0,
        "tle_line1": "1 31692U 99025CDA 25347.79707932  .00006940  00000+0  32582-2 0  9991",
        "tle_line2": "2 31692  99.1765 344.3180 0087937  78.7556 282.3486 14.18364560582247"
      },
      "geometry": {
        "type": "Point",
        "coordinates": [
          164.79596345740313,
          -18.692901609964842
        ]
      }
    },
    {
      "type": "Feature",
      "properties": {
        "norad_id": 31695,
        "name": "FENGYUN 1C DEB",
        "group": "fengyun-1c-debris",
        "lat": 26.270624291926822,
        "lon": -100.19071888402803,
        "alt_km": 586.4237527502219,
        "timestamp": "2025-12-17T07:00:47.188300+00:00",
        "meta_object_name": "FENGYUN 1C DEB",
        "meta_object_id": "1999-025CDD",
        "meta_epoch": "2025-12-14T22:54:11.805120",
        "meta_mean_motion": 14.73724292,
        "meta_eccentricity": 0.0174905,
        "meta_inclination": 98.2647,
        "meta_ra_of_asc_node": 73.3122,
        "meta_arg_of_pericenter": 221.4768,
        "meta_mean_anomaly": 137.3057,
        "meta_ephemeris_type": 0,
        "meta_classification_type": "U",
        "meta_norad_cat_id": 31695,
        "meta_element_set_no": 999,
        "meta_rev_at_epoch": 66004,
        "meta_bstar": 0.00098127556,
        "meta_mean_motion_dot": 8.134e-05,
        "meta_mean_motion_ddot": 0,
        "tle_line1": "1 31695U 99025CDD 25348.95430330  .00008134  00000+0  98128-3 0  9994",
        "tle_line2": "2 31695  98.2647  73.3122 0174905 221.4768 137.3057 14.73724292660049"
      },
      "geometry": {
        "type": "Point",
        "coordinates": [
          -100.19071888402803,
          26.270624291926822
        ]
      }
    },
    {
      "type": "Feature",
      "properties": {
        "norad_id": 31714,
        "name": "FENGYUN 1C DEB",
        "group": "fengyun-1c-debris",
        "lat": 57.35638405851702,
        "lon": 86.48059491729013,
        "alt_km": 608.957085232897,
        "timestamp": "2025-12-17T07:00:47.188310+00:00",
        "meta_object_name": "FENGYUN 1C DEB",
        "meta_object_id": "1999-025CDM",
        "meta_epoch": "2025-12-16T16:12:31.547232",
        "meta_mean_motion": 14.8846061,
        "meta_eccentricity": 0.00174899,
        "meta_inclination": 99.0321,
        "meta_ra_of_asc_node": 251.4008,
        "meta_arg_of_pericenter": 290.5599,
        "meta_mean_anomaly": 127.4843,
        "meta_ephemeris_type": 0,
        "meta_classification_type": "U",
        "meta_norad_cat_id": 31714,
        "meta_element_set_no": 999,
        "meta_rev_at_epoch": 96108,
        "meta_bstar": 0.0043526641,
        "meta_mean_motion_dot": 0.00040675,
        "meta_mean_motion_ddot": 0,
        "tle_line1": "1 31714U 99025CDM 25350.67536513  .00040675  00000+0  43527-2 0  9996",
        "tle_line2": "2 31714  99.0321 251.4008 0017489 290.5599 127.4843 14.88460610961081"
      },
      "geometry": {
        "type": "Point",
        "coordinates": [
          86.48059491729013,
          57.35638405851702
        ]
      }
    },
    {
      "type": "Feature",
      "properties": {
        "norad_id": 31715,
        "name": "FENGYUN 1C DEB",
        "group": "fengyun-1c-debris",
        "lat": -51.29238299337002,
        "lon": -167.61316188232016,
        "alt_km": 848.1849455256352,
        "timestamp": "2025-12-17T07:00:47.188320+00:00",
        "meta_object_name": "FENGYUN 1C DEB",
        "meta_object_id": "1999-025CDN",
        "meta_epoch": "2025-12-16T06:27:17.275680",
        "meta_mean_motion": 14.52195341,
        "meta_eccentricity": 0.01870816,
        "meta_inclination": 99.2931,
        "meta_ra_of_asc_node": 179.4646,
        "meta_arg_of_pericenter": 108.9438,
        "meta_mean_anomaly": 253.2134,
        "meta_ephemeris_type": 0,
        "meta_classification_type": "U",
        "meta_norad_cat_id": 31715,
        "meta_element_set_no": 999,
        "meta_rev_at_epoch": 61768,
        "meta_bstar": 0.00058161742,
        "meta_mean_motion_dot": 2.905e-05,
        "meta_mean_motion_ddot": 0,
        "tle_line1": "1 31715U 99025CDN 25350.26894995  .00002905  00000+0  58162-3 0  9999",
        "tle_line2": "2 31715  99.2931 179.4646 0187081 108.9438 253.2134 14.52195341617680"
      },
      "geometry": {
        "type": "Point",
        "coordinates": [
          -167.61316188232016,
          -51.29238299337002
        ]
      }
    },
    {
      "type": "Feature",
      "properties": {
        "norad_id": 31716,
        "name": "FENGYUN 1C DEB",
        "group": "fengyun-1c-debris",
        "lat": 2.03098077639252,
        "lon": 70.31032747535663,
        "alt_km": 898.1595087676724,
        "timestamp": "2025-12-17T07:00:47.188331+00:00",
        "meta_object_name": "FENGYUN 1C DEB",
        "meta_object_id": "1999-025CDP",
        "meta_epoch": "2025-12-15T05:18:38.953152",
        "meta_mean_motion": 14.03618298,
        "meta_eccentricity": 0.0130607,
        "meta_inclination": 98.5573,
        "meta_ra_of_asc_node": 248.0547,
        "meta_arg_of_pericenter": 84.2692,
        "meta_mean_anomaly": 73.4304,
        "meta_ephemeris_type": 0,
        "meta_classification_type": "U",
        "meta_norad_cat_id": 31716,
        "meta_element_set_no": 999,
        "meta_rev_at_epoch": 94154,
        "meta_bstar": 0.0011158929,
        "meta_mean_motion_dot": 1.85e-05,
        "meta_mean_motion_ddot": 0,
        "tle_line1": "1 31716U 99025CDP 25349.22128418  .00001850  00000+0  11159-2 0  9996",
        "tle_line2": "2 31716  98.5573 248.0547 0130607  84.2692  73.4304 14.03618298941541"
      },
      "geometry": {
        "type": "Point",
        "coordinates": [
          70.31032747535663,
          2.03098077639252
        ]
      }
    },
    {
      "type": "Feature",
      "properties": {
        "norad_id": 31720,
        "name": "FENGYUN 1C DEB",
        "group": "fengyun-1c-debris",
        "lat": 1.2106637947167231,
        "lon": -96.47335469770577,
        "alt_km": 679.2636143729824,
        "timestamp": "2025-12-17T07:00:47.188341+00:00",
        "meta_object_name": "FENGYUN 1C DEB",
        "meta_object_id": "1999-025CDT",
        "meta_epoch": "2025-12-16T04:54:09.552672",
        "meta_mean_motion": 14.71853982,
        "meta_eccentricity": 0.01002743,
        "meta_inclination": 99.0477,
        "meta_ra_of_asc_node": 262.5106,
        "meta_arg_of_pericenter": 112.854,
        "meta_mean_anomaly": 248.329,
        "meta_ephemeris_type": 0,
        "meta_classification_type": "U",
        "meta_norad_cat_id": 31720,
        "meta_element_set_no": 999,
        "meta_rev_at_epoch": 98287,
        "meta_bstar": 0.00049359601,
        "meta_mean_motion_dot": 3.276e-05,
        "meta_mean_motion_ddot": 0,
        "tle_line1": "1 31720U 99025CDT 25350.20427723  .00003276  00000+0  49360-3 0  9992",
        "tle_line2": "2 31720  99.0477 262.5106 0100274 112.8540 248.3290 14.71853982982878"
      },
      "geometry": {
        "type": "Point",
        "coordinates": [
          -96.47335469770577,
          1.2106637947167231
        ]
      }
    },
    {
      "type": "Feature",
      "properties": {
        "norad_id": 31721,
        "name": "FENGYUN 1C DEB",
        "group": "fengyun-1c-debris",
        "lat": -72.53905776424376,
        "lon": 4.281586609045621,
        "alt_km": 1077.525896000935,
        "timestamp": "2025-12-17T07:00:47.188351+00:00",
        "meta_object_name": "FENGYUN 1C DEB",
        "meta_object_id": "1999-025CDU",
        "meta_epoch": "2025-12-14T04:19:36.790752",
        "meta_mean_motion": 13.73779302,
        "meta_eccentricity": 0.03174412,
        "meta_inclination": 99.7811,
        "meta_ra_of_asc_node": 327.8381,
        "meta_arg_of_pericenter": 179.7828,
        "meta_mean_anomaly": 199.0539,
        "meta_ephemeris_type": 0,
        "meta_classification_type": "U",
        "meta_norad_cat_id": 31721,
        "meta_element_set_no": 999,
        "meta_rev_at_epoch": 67406,
        "meta_bstar": 0.00045246287,
        "meta_mean_motion_dot": 5.63e-06,
        "meta_mean_motion_ddot": 0,
        "tle_line1": "1 31721U 99025CDU 25348.18028693  .00000563  00000+0  45246-3 0  9995",
        "tle_line2": "2 31721  99.7811 327.8381 0317441 179.7828 199.0539 13.73779302674066"
      },
      "geometry": {
        "type": "Point",
        "coordinates": [
          4.281586609045621,
          -72.53905776424376
        ]
      }
    }
  ]
}